GPS BIIF-5  (PRN 30)    
1 39533U 14008A   22013.78329593  .00000099  00000+0  00000+0 0  9996
2 39533  53.6429 215.1776 0055027 204.4380 155.3527  2.00572567 57287
ASTRA 5B (EGNOS/PRN 123)
1 39617U 14011B   22014.50984618  .00000169  00000+0  00000+0 0  9997
2 39617   0.0292  11.4629 0003368 269.9816  47.5190  1.00272767 28474
COSMOS 2492 (754)       
1 39620U 14012A   22014.37308325 -.00000052  00000+0  00000+0 0  9994
2 39620  65.8439   8.2990 0014816 315.3063 220.0377  2.13103105 60829
IRNSS-1B                
1 39635U 14017A   22012.79195458  .00000124  00000+0  00000+0 0  9999
2 39635  29.0607 267.7015 0018870 191.5835 353.2056  1.00270063 28582
LUCH 5V (SDCM/PRN 141)  
1 39727U 14023A   22014.52249282 -.00000254  00000+0  00000+0 0  9991
2 39727   1.1448  71.6343 0002430 260.0656  65.0166  1.00267823 28166
GPS BIIF-6  (PRN 06)    
1 39741U 14026A   22014.06210505 -.00000067  00000+0  00000+0 0  9997
2 39741  56.4976  34.2449 0028198 300.1474  59.6243  2.00567023 56146
COSMOS 2500 (755)       
1 40001U 14032A   22014.42364973 -.00000052  00000+0  00000+0 0  9998
2 40001  65.7842   8.1693 0007585 222.0325 211.1687  2.13102308 59041
GPS BIIF-7  (PRN 09)    
1 40105U 14045A   22014.15507513  .00000013  00000+0  00000+0 0  9992
2 40105  54.6620 152.9653 0021169 108.2214 251.9715  2.00567281 53686
GSAT0201 (PRN E18)      
1 40128U 14050A   22014.05536950 -.00000118  00000+0  00000+0 0  9996
2 40128  50.3757 338.4348 1632567 118.6212 258.7924  1.85519477 48352
GSAT0202 (PRN E14)      
1 40129U 14050B   22014.31694318 -.00000117  00000+0  00000+0 0  9998
2 40129  50.4029 337.4805 1629618 119.4372 257.8347  1.85520134 50525
IRNSS-1C                
1 40269U 14061A   22014.52005072 -.00000149  00000+0  00000+0 0  9996
2 40269   2.6527 136.1670 0017355  10.0697 237.9085  1.00273442 26491
GPS BIIF-8  (PRN 03)    
1 40294U 14068A   22014.52653501 -.00000060  00000+0  00000+0 0  9999
2 40294  55.6998  94.0215 0036651  54.0091 306.3624  2.00560816 52823
COSMOS 2501 (702K)      
1 40315U 14075A   22014.31560238  .00000077  00000+0  00000+0 0  9999
2 40315  63.7207 246.5724 0016363 207.9514 309.6232  2.13101272 55449
GPS BIIF-9  (PRN 26)    
1 40534U 15013A   22014.16002162  .00000005  00000+0  00000+0 0  9996
2 40534  53.8031 271.0876 0066881  18.1072 342.1971  2.00562060 49435
GSAT0203 (PRN E26)      
1 40544U 15017A   22013.76060697 -.00000070  00000+0  00000+0 0  9996
2 40544  56.7315  25.5980 0005223 263.6766  96.3047  1.70476111 41667
GSAT0204 (PRN E22)      
1 40545U 15017B   22012.25338626 -.00000075  00000+0  00000+0 0  9995
2 40545  56.7363  25.6510 0004715 252.8725 107.1155  1.70475785  4689
IRNSS-1D                
1 40547U 15018A   22014.59776221 -.00000249  00000+0  00000+0 0  9997
2 40547  28.8847 267.7193 0017583 178.6878 354.6693  1.00272454 25056
BEIDOU 17 (C31)         
1 40549U 15019A   22014.23307122 -.00000190  00000+0  00000+0 0  9996
2 40549  52.1513 314.5481 0035733 191.2219 148.1202  1.00275166 24881
GPS BIIF-10 (PRN 08)    
1 40730U 15033A   22014.32220420 -.00000092  00000+0  00000+0 0  9990
2 40730  55.2992 332.8816 0071137   2.8331 357.1997  2.00559961 47600
BEIDOU 18 (C57)         
1 40748U 15037A   22014.36695212 -.00000094  00000+0  00000+0 0  9994
2 40748  55.9070 356.9431 0004225 333.9507 202.3496  1.86233193 44049
BEIDOU 19 (C58)         
1 40749U 15037B   22014.73970205 -.00000094  00000+0  00000+0 0  9994
2 40749  55.9094 356.9202 0006810 305.3064 256.0561  1.86232026 44048
GSAT0205 (PRN E24)      
1 40889U 15045A   22014.36713350  .00000019  00000+0  00000+0 0  9999
2 40889  55.7272 266.2200 0006165  15.5627 344.5363  1.70474879 39480
GSAT0206 (PRN E30)      
1 40890U 15045B   22014.00083261  .00000016  00000+0  00000+0 0  9990
2 40890  55.7247 266.2264 0004469   9.4761 350.6103  1.70473168 39503
BEIDOU 20 (C18)         
1 40938U 15053A   22014.19051685 -.00000115  00000+0  00000+0 0  9998
2 40938  51.7378 277.6481 0043092 194.1806 166.3338  1.00281640 23163
GPS BIIF-11 (PRN 10)    
1 41019U 15062A   22014.37222899 -.00000062  00000+0  00000+0 0  9997
2 41019  55.6902  93.8672 0075596 216.1024 143.4169  2.00563143 45446
GSAT-15 (GAGAN/PRN 139) 
1 41028U 15065A   22014.52223118 -.00000243  00000+0  00000+0 0  9993
2 41028   0.0757 273.8771 0001779 326.5544 154.9906  1.00271752 22614
GSAT0209 (PRN E09)      
1 41174U 15079A   22013.58952817  .00000012  00000+0  00000+0 0  9993
2 41174  55.1129 145.6602 0002310 322.1852  37.7490  1.70473538 37812
GSAT0208 (PRN E08)      
1 41175U 15079B   22013.22259229  .00000013  00000+0  00000+0 0  9993
2 41175  55.1111 145.6690 0001618 324.7080  35.2329  1.70473568 37640
IRNSS-1E                
1 41241U 16003A   22014.59776221 -.00000313  00000+0  00000+0 0  9996
2 41241  29.6369  87.0205 0021397 187.5528 166.4482  1.00276230 22005
GPS BIIF-12 (PRN 32)    
1 41328U 16007A   22013.96926332  .00000016  00000+0  00000+0 0  9995
2 41328  54.8837 153.6063 0055838 225.6824 133.8228  2.00552939 43444
COSMOS 2514 (751)       
1 41330U 16008A   22014.87227448 -.00000053  00000+0  00000+0 0  9994
2 41330  65.5852   7.8844 0011513 224.6756  16.2452  2.13102752 46214
IRNSS-1F                
1 41384U 16015A   22014.51002062  .00000173  00000+0  00000+0 0  9997
2 41384   2.0292 169.1943 0020913 182.1762 338.5730  1.00267866 21471
BEIDOU IGSO-6 (C13)     
1 41434U 16021A   22014.57427938 -.00000147  00000+0  00000+0 0  9991
2 41434  57.8715  54.4350 0045042 216.7974 145.3496  1.00271614 21291
IRNSS-1G                
1 41469U 16027A   22014.81395266 -.00000321  00000+0  00000+0 0  9994
2 41469   1.9796 172.3862 0003484 250.1829 114.1283  1.00266556 20983
GSAT0211 (PRN E02)      
1 41549U 16030A   22013.92889199  .00000016  00000+0  00000+0 0  9991
2 41549  55.8697 266.1452 0004863 345.5886  14.4753  1.70474627 35135
GSAT0210 (PRN E01)      
1 41550U 16030B   22014.22160338  .00000018  00000+0  00000+0 0  9996
2 41550  55.8689 266.1384 0003356 325.5607  34.4970  1.70474693 35133
COSMOS 2516 (753)       
1 41554U 16032A   22014.47683834  .00000078  00000+0  00000+0 0  9996
2 41554  63.9465 246.8006 0012347 216.5063 340.7849  2.13106017 43812
BEIDOU-2 G7 (C03)       
1 41586U 16037A   22014.80049512 -.00000341  00000+0  00000+0 0  9996
2 41586   1.6375  66.9796 0008287 359.4199  86.5327  1.00270513 20592
E 117 W B (WAAS/PRN 131)
1 41589U 16038B   22014.61290448  .00000002  00000+0  00000+0 0  9998
2 41589   0.0313 108.5030 0001363 293.7494 175.4448  1.00273802 20518
GSAT0207 (PRN E07)      
1 41859U 16069A   22014.46856794  .00000010  00000+0  00000+0 0  9996
2 41859  54.7726 145.8553 0002301 293.9940  65.9297  1.70473567 31870
GSAT0212 (PRN E03)      
1 41860U 16069B   22014.32199400  .00000010  00000+0  00000+0 0  9997
2 41860  54.7701 145.8574 0001449 353.6907   6.2556  1.70473568 32123
GSAT0213 (PRN E04)      
1 41861U 16069C   22013.51430990  .00000012  00000+0  00000+0 0  9992
2 41861  54.7725 145.8845 0002271 250.4561 109.4700  1.70473601 31972
GSAT0214 (PRN E05)      
1 41862U 16069D   22014.24800085  .00000011  00000+0  00000+0 0  9999
2 41862  54.7710 145.8590 0001383 248.1465 111.7871  1.70473659 32119
SES-15 (WAAS/PRN 133)   
1 42709U 17026A   22014.55301791  .00000075  00000+0  00000+0 0  9998
2 42709   0.0172  16.0515 0000724 269.8830 257.9760  1.00269861 17952
QZS-2 (QZSS/PRN 184)    
1 42738U 17028A   22014.56091110 -.00000135  00000+0  00000+0 0  9992
2 42738  42.0269 266.3399 0754854 269.7264 280.7108  1.00279507 16943
QZS-3 (QZSS/PRN 189)    
1 42917U 17048A   22014.74420174 -.00000333  00000+0  00000+0 0  9999
2 42917   0.0723 228.6131 0001962  69.4576 211.0279  1.00274646 16172
COSMOS 2522 (752)       
1 42939U 17055A   22014.05451081  .00000074  00000+0  00000+0 0  9997
2 42939  64.1802 247.1637 0005955 249.5486 203.0020  2.13102014 33560
QZS-4 (QZSS/PRN 185)    
1 42965U 17062A   22005.31362868 -.00000354  00000+0  00000+0 0  9999
2 42965  40.8015   4.2135 0749904 271.8086  77.0627  1.00248363 15525
BEIDOU-3 M1 (C19)       
1 43001U 17069A   22014.38998321 -.00000051  00000+0  00000+0 0  9998
2 43001  55.4679 116.8532 0008631 283.5766 351.5268  1.86231549 28523
BEIDOU-3 M2 (C20)       
1 43002U 17069B   22013.84552266 -.00000052  00000+0  00000+0 0  9994
2 43002  55.4675 116.9078 0006721 308.7531   4.5113  1.86231293 28502
GSAT0215 (PRN E21)      
1 43055U 17079A   22014.15225159  .00000018  00000+0  00000+0 0  9997
2 43055  55.8445 265.9736 0002637 330.4387  29.6256  1.70473779 25455
GSAT0216 (PRN E25)      
1 43056U 17079B   22013.85800140  .00000016  00000+0  00000+0 0  9991
2 43056  55.8455 265.9816 0004115 309.7645  50.2768  1.70473936 25469
GSAT0217 (PRN E27)      
1 43057U 17079C   22014.07819999  .00000018  00000+0  00000+0 0  9991
2 43057  55.8438 265.9754 0004212 324.6383  35.4126  1.70473927 25457
GSAT0218 (PRN E31)      
1 43058U 17079D   22011.95184383  .00000001  00000+0  00000+0 0  9990
2 43058  55.8452 266.0313 0004366 302.4905  57.5354  1.70473962 25447
BEIDOU-3 M3 (C27)       
1 43107U 18003A   22014.47141218 -.00000095  00000+0  00000+0 0  9997
2 43107  55.3539 357.9251 0003879  35.3314 143.5480  1.86232354 27283
BEIDOU-3 M4 (C28)       
1 43108U 18003B   22014.21151421 -.00000095  00000+0  00000+0 0  9997
2 43108  55.3479 357.9245 0004164 260.7316 148.6515  1.86230796 27287
BEIDOU-3 M5 (C21)       
1 43207U 18018A   22013.51038736 -.00000052  00000+0  00000+0 0  9991
2 43207  55.4263 117.0019 0004046 338.5423  21.4297  1.86231406 26659
BEIDOU-3 M6 (C22)       
1 43208U 18018B   22014.11402935 -.00000052  00000+0  00000+0 0  9995
2 43208  55.4261 116.9868 0006331 295.7921  64.1306  1.86231595 26669
BEIDOU-3 M7 (C29)       
1 43245U 18029A   22014.67173900 -.00000096  00000+0  00000+0 0  9994
2 43245  55.2753 355.6974 0001527 289.8574 293.6628  1.86232461 25820
BEIDOU-3 M8 (C30)       
1 43246U 18029B   22014.60915697 -.00000096  00000+0  10000-3 0  9990
2 43246  55.2726 355.7299 0004729 338.3518 249.6182  1.86232697 25813
